{"type": "FeatureCollection", "features": [ {"type": "Feature", "properties": {"norad_id": 43010, "name": "FENGYUN 3D", "group": "weather", "lat": -8.914200232606515, "lon": -48.60705411562524, "alt_km": 830.9232626566954, "timestamp": "2025-12-09T16:56:36.222646+00:00", "meta": {"OBJECT_NAME": "FENGYUN 3D", "OBJECT_ID": "2017-072A", "EPOCH": "2025-12-09T11:54:41.087232", "MEAN_MOTION": 14.1968134, "ECCENTRICITY": 7.42e-05, "INCLINATION": 98.9891, "RA_OF_ASC_NODE": 309.7575, "ARG_OF_PERICENTER": 191.9863, "MEAN_ANOMALY": 168.1295, "EPHEMERIS_TYPE": 0, "CLASSIFICATION_TYPE": "U", "NORAD_CAT_ID": 43010, "ELEMENT_SET_NO": 999, "REV_AT_EPOCH": 41807, "BSTAR": -2.0869e-05, "MEAN_MOTION_DOT": -9e-07, "MEAN_MOTION_DDOT": 0}, "tle": {"line1": "1 43010U 17072A   25343.49630888 -.00000090  00000+0 -20869-4 0  9997", "line2": "2 43010  98.9891 309.7575 0000742 191.9863 168.1295 14.19681340418079"}}, "geometry": {"type": "Point", "coordinates": [-48.60705411562524, -8.914200232606515]}}, {"type": "Feature", "properties": {"norad_id": 43013, "name": "NOAA 20 (JPSS-1)", "group": "weather", "lat": 34.21316692685006, "lon": 106.05359761095741, "alt_km": 823.7945763154194, "timestamp": "2025-12-09T16:56:36.222657+00:00", "meta": {"OBJECT_NAME": "NOAA 20 (JPSS-1)", "OBJECT_ID": "2017-073A", "EPOCH": "2025-12-09T11:11:12.183936", "MEAN_MOTION": 14.19524409, "ECCENTRICITY": 0.0002138, "INCLINATION": 98.7595, "RA_OF_ASC_NODE": 279.7988, "ARG_OF_PERICENTER": 92.0227, "MEAN_ANOMALY": 268.1193, "EPHEMERIS_TYPE": 0, "CLASSIFICATION_TYPE": "U", "NORAD_CAT_ID": 43013, "ELEMENT_SET_NO": 999, "REV_AT_EPOCH": 41755, "BSTAR": 0.0001092, "MEAN_MOTION_DOT": 1.86e-06, "MEAN_MOTION_DDOT": 0}, "tle": {"line1": "1 43013U 17073A   25343.46611324  .00000186  00000+0  10920-3 0  9992", "line2": "2 43013  98.7595 279.7988 0002138  92.0227 268.1193 14.19524409417553"}}, "geometry": {"type": "Point", "coordinates": [106.05359761095741, 34.21316692685006]}}, {"type": "Feature", "properties": {"norad_id": 43226, "name": "GOES 17", "group": "weather", "lat": 0.1763399875434666, "lon": -116.67473731444106, "alt_km": 35773.89503223378, "timestamp": "2025-12-09T16:56:36.222673+00:00", "meta": {"OBJECT_NAME": "GOES 17", "OBJECT_ID": "2018-022A", "EPOCH": "2025-12-09T12:25:42.053376", "MEAN_MOTION": 1.0027167, "ECCENTRICITY": 0.00034, "INCLINATION": 0.4517, "RA_OF_ASC_NODE": 89.1538, "ARG_OF_PERICENTER": 186.2478, "MEAN_ANOMALY": 260.0352, "EPHEMERIS_TYPE": 0, "CLASSIFICATION_TYPE": "U", "NORAD_CAT_ID": 43226, "ELEMENT_SET_NO": 999, "REV_AT_EPOCH": 2852, "BSTAR": 0, "MEAN_MOTION_DOT": -1.8e-06, "MEAN_MOTION_DDOT": 0}, "tle": {"line1": "1 43226U 18022A   25343.51784784 -.00000180  00000+0  00000+0 0  9999", "line2": "2 43226   0.4517  89.1538 0003400 186.2478 260.0352  1.00271670 28522"}}, "geometry": {"type": "Point", "coordinates": [-116.67473731444106, 0.1763399875434666]}}, {"type": "Feature", "properties": {"norad_id": 43491, "name": "FENGYUN 2H", "group": "weather", "lat": -1.2191755617704034, "lon": 52.235702799598386, "alt_km": 35798.503114697305, "timestamp": "2025-12-09T16:56:36.222687+00:00", "meta": {"OBJECT_NAME": "FENGYUN 2H", "OBJECT_ID": "2018-050A", "EPOCH": "2025-12-09T12:14:15.357408", "MEAN_MOTION": 1.00271069, "ECCENTRICITY": 0.0002934, "INCLINATION": 2.5422, "RA_OF_ASC_NODE": 81.3502, "ARG_OF_PERICENTER": 164.691, "MEAN_ANOMALY": 95.3838, "EPHEMERIS_TYPE": 0, "CLASSIFICATION_TYPE": "U", "NORAD_CAT_ID": 43491, "ELEMENT_SET_NO": 999, "REV_AT_EPOCH": 2753, "BSTAR": 0, "MEAN_MOTION_DOT": -1.28e-06, "MEAN_MOTION_DDOT": 0}, "tle": {"line1": "1 43491U 18050A   25343.50989997 -.00000128  00000+0  00000+0 0  9998", "line2": "2 43491   2.5422  81.3502 0002934 164.6910  95.3838  1.00271069 27531"}}, "geometry": {"type": "Point", "coordinates": [52.235702799598386, -1.2191755617704034]}}, {"type": "Feature", "properties": {"norad_id": 43689, "name": "METOP-C", "group": "weather", "lat": -79.87435599738173, "lon": 162.57141833684588, "alt_km": 828.4178464753531, "timestamp": "2025-12-09T16:56:36.222699+00:00", "meta": {"OBJECT_NAME": "METOP-C", "OBJECT_ID": "2018-087A", "EPOCH": "2025-12-09T10:38:00.799584", "MEAN_MOTION": 14.21510083, "ECCENTRICITY": 0.0001476, "INCLINATION": 98.6934, "RA_OF_ASC_NODE": 41.2631, "ARG_OF_PERICENTER": 48.0195, "MEAN_ANOMALY": 312.1108, "EPHEMERIS_TYPE": 0, "CLASSIFICATION_TYPE": "U", "NORAD_CAT_ID": 43689, "ELEMENT_SET_NO": 999, "REV_AT_EPOCH": 36787, "BSTAR": 0.00014111, "MEAN_MOTION_DOT": 2.65e-06, "MEAN_MOTION_DDOT": 0}, "tle": {"line1": "1 43689U 18087A   25343.44306481  .00000265  00000+0  14111-3 0  9994", "line2": "2 43689  98.6934  41.2631 0001476  48.0195 312.1108 14.21510083367875"}}, "geometry": {"type": "Point", "coordinates": [162.57141833684588, -79.87435599738173]}}, {"type": "Feature", "properties": {"norad_id": 43823, "name": "GEO-KOMPSAT-2A", "group": "weather", "lat": 0.009767207856251814, "lon": 101.10522915966433, "alt_km": 35786.65375096704, "timestamp": "2025-12-09T16:56:36.222711+00:00", "meta": {"OBJECT_NAME": "GEO-KOMPSAT-2A", "OBJECT_ID": "2018-100A", "EPOCH": "2025-12-08T09:04:40.751616", "MEAN_MOTION": 1.00270893, "ECCENTRICITY": 1.774e-05, "INCLINATION": 0.0576, "RA_OF_ASC_NODE": 113.8278, "ARG_OF_PERICENTER": 87.1447, "MEAN_ANOMALY": 140.8536, "EPHEMERIS_TYPE": 0, "CLASSIFICATION_TYPE": "U", "NORAD_CAT_ID": 43823, "ELEMENT_SET_NO": 999, "REV_AT_EPOCH": 2571, "BSTAR": 0, "MEAN_MOTION_DOT": -3.41e-06, "MEAN_MOTION_DDOT": 0}, "tle": {"line1": "1 43823U 18100A   25342.37824944 -.00000341  00000+0  00000+0 0  9994", "line2": "2 43823   0.0576 113.8278 0000177  87.1447 140.8536  1.00270893 25718"}}, "geometry": {"type": "Point", "coordinates": [101.10522915966433, 0.009767207856251814]}}, {"type": "Feature", "properties": {"norad_id": 44387, "name": "METEOR-M2 2", "group": "weather", "lat": -50.92385570645081, "lon": -25.480039627853024, "alt_km": 818.4788135260897, "timestamp": "2025-12-09T16:56:36.222722+00:00", "meta": {"OBJECT_NAME": "METEOR-M2 2", "OBJECT_ID": "2019-038A", "EPOCH": "2025-12-09T12:07:41.490912", "MEAN_MOTION": 14.24289219, "ECCENTRICITY": 0.0001095, "INCLINATION": 98.897, "RA_OF_ASC_NODE": 323.1941, "ARG_OF_PERICENTER": 153.6787, "MEAN_ANOMALY": 206.4447, "EPHEMERIS_TYPE": 0, "CLASSIFICATION_TYPE": "U", "NORAD_CAT_ID": 44387, "ELEMENT_SET_NO": 999, "REV_AT_EPOCH": 33429, "BSTAR": 0.00014348, "MEAN_MOTION_DOT": 2.85e-06, "MEAN_MOTION_DDOT": 0}, "tle": {"line1": "1 44387U 19038A   25343.50534133  .00000285  00000+0  14348-3 0  9995", "line2": "2 44387  98.8970 323.1941 0001095 153.6787 206.4447 14.24289219334294"}}, "geometry": {"type": "Point", "coordinates": [-25.480039627853024, -50.92385570645081]}}, {"type": "Feature", "properties": {"norad_id": 47719, "name": "ARKTIKA-M 1", "group": "weather", "lat": 56.501327811311434, "lon": 134.23159059554897, "alt_km": 33173.04041629733, "timestamp": "2025-12-09T16:56:36.222736+00:00", "meta": {"OBJECT_NAME": "ARKTIKA-M 1", "OBJECT_ID": "2021-016A", "EPOCH": "2025-12-09T02:05:46.689216", "MEAN_MOTION": 2.00743922, "ECCENTRICITY": 0.7204271, "INCLINATION": 63.1782, "RA_OF_ASC_NODE": 84.5148, "ARG_OF_PERICENTER": 269.1088, "MEAN_ANOMALY": 15.6099, "EPHEMERIS_TYPE": 0, "CLASSIFICATION_TYPE": "U", "NORAD_CAT_ID": 47719, "ELEMENT_SET_NO": 999, "REV_AT_EPOCH": 3497, "BSTAR": 0, "MEAN_MOTION_DOT": -3.4e-07, "MEAN_MOTION_DDOT": 0}, "tle": {"line1": "1 47719U 21016A   25343.08734594 -.00000034  00000+0  00000+0 0  9991", "line2": "2 47719  63.1782  84.5148 7204271 269.1088  15.6099  2.00743922 34976"}}, "geometry": {"type": "Point", "coordinates": [134.23159059554897, 56.501327811311434]}}, {"type": "Feature", "properties": {"norad_id": 49008, "name": "FENGYUN 3E", "group": "weather", "lat": -43.7189460451509, "lon": -7.271026329968953, "alt_km": 831.9868404295166, "timestamp": "2025-12-09T16:56:36.222758+00:00", "meta": {"OBJECT_NAME": "FENGYUN 3E", "OBJECT_ID": "2021-062A", "EPOCH": "2025-12-09T12:04:41.640672", "MEAN_MOTION": 14.19879046, "ECCENTRICITY": 6.06e-05, "INCLINATION": 98.7472, "RA_OF_ASC_NODE": 344.0624, "ARG_OF_PERICENTER": 293.4891, "MEAN_ANOMALY": 66.6222, "EPHEMERIS_TYPE": 0, "CLASSIFICATION_TYPE": "U", "NORAD_CAT_ID": 49008, "ELEMENT_SET_NO": 999, "REV_AT_EPOCH": 22966, "BSTAR": 5.5388e-05, "MEAN_MOTION_DOT": 7.4e-07, "MEAN_MOTION_DDOT": 0}, "tle": {"line1": "1 49008U 21062A   25343.50325973  .00000074  00000+0  55388-4 0  9996", "line2": "2 49008  98.7472 344.0624 0000606 293.4891  66.6222 14.19879046229669"}}, "geometry": {"type": "Point", "coordinates": [-7.271026329968953, -43.7189460451509]}}, {"type": "Feature", "properties": {"norad_id": 51850, "name": "GOES 18", "group": "weather", "lat": 0.0029940194493199047, "lon": -164.1694760897812, "alt_km": 35787.041101988354, "timestamp": "2025-12-09T16:56:36.222772+00:00", "meta": {"OBJECT_NAME": "GOES 18", "OBJECT_ID": "2022-021A", "EPOCH": "2025-12-09T12:00:33.174144", "MEAN_MOTION": 1.00271048, "ECCENTRICITY": 7.26e-05, "INCLINATION": 0.0386, "RA_OF_ASC_NODE": 155.385, "ARG_OF_PERICENTER": 145.2667, "MEAN_ANOMALY": 180.9753, "EPHEMERIS_TYPE": 0, "CLASSIFICATION_TYPE": "U", "NORAD_CAT_ID": 51850, "ELEMENT_SET_NO": 999, "REV_AT_EPOCH": 469, "BSTAR": 0, "MEAN_MOTION_DOT": 9.9e-07, "MEAN_MOTION_DDOT": 0}, "tle": {"line1": "1 51850U 22021A   25343.50038396  .00000099  00000+0  00000+0 0  9993", "line2": "2 51850   0.0386 155.3850 0000726 145.2667 180.9753  1.00271048  4696"}}, "geometry": {"type": "Point", "coordinates": [-164.1694760897812, 0.0029940194493199047]}}]}